NORAD_CAT_ID,OBJECT_NAME,OBJECT_TYPE,EPOCH,MEAN_MOTION,ECCENTRICITY,INCLINATION,RA_OF_ASC_NODE,ARG_OF_PERICENTER,MEAN_ANOMALY,BSTAR,MEAN_MOTION_DOT,MEAN_MOTION_DDOT,TLE_LINE0,TLE_LINE1,TLE_LINE2,SEMIMAJOR_AXIS,PERIOD,APOGEE,PERIGEE,DECAYED
53572.0,STARLINK-4555,PAYLOAD,2023-02-10 08:35:36,15.08839768,0.0001552,53.2178,56.7176,126.261,233.8526,7.6684e-05,9.33e-06,0.0,0 STARLINK-4555,1 53572U 22101AX  23041.35805828  .00000933  00000-0  76684-4 0  9997,2 53572  53.2178  56.7176 0001552 126.2610 233.8526 15.08839768 26869,6917.881,95.438,540.82,538.672,0.0
53572.0,STARLINK-4555,PAYLOAD,2023-02-11 02:04:51,15.08834603,0.0001275,53.2181,53.446,109.0135,251.0995,6.0251e-05,6.71e-06,0.0,0 STARLINK-4555,1 53572U 22101AX  23042.08670455  .00000671  00000-0  60251-4 0  9996,2 53572  53.2181  53.4460 0001275 109.0135 251.0995 15.08834603 26973,6917.897,95.438,540.644,538.88,0.0
53572.0,STARLINK-4555,PAYLOAD,2023-02-11 06:51:00,15.08839536,0.0001197,53.2185,52.5519,115.8688,244.2428,9.3815e-05,1.206e-05,0.0,0 STARLINK-4555,1 53572U 22101AX  23042.28541983  .00001206  00000-0  93815-4 0  9998,2 53572  53.2185  52.5519 0001197 115.8688 244.2428 15.08839536 27003,6917.882,95.438,540.575,538.919,0.0
53572.0,STARLINK-4555,PAYLOAD,2023-02-11 17:58:42,15.08841691,0.0001357,53.2194,50.4701,87.6529,272.4618,3.5821e-05,2.82e-06,0.0,0 STARLINK-4555,1 53572U 22101AX  23042.74910073  .00000282  00000-0  35821-4 0  9995,2 53572  53.2194  50.4701 0001357  87.6529 272.4618 15.08841691 27077,6917.875,95.437,540.679,538.801,0.0
53572.0,STARLINK-4555,PAYLOAD,2023-02-12 09:52:33,15.08840391,0.0001544,53.2178,47.4997,74.9118,285.2045,6.5925e-05,7.61e-06,0.0,0 STARLINK-4555,1 53572U 22101AX  23043.41150425  .00000761  00000-0  65925-4 0  9997,2 53572  53.2178  47.4997 0001544  74.9118 285.2045 15.08840391 27176,6917.879,95.438,540.812,538.676,0.0
53572.0,STARLINK-4555,PAYLOAD,2023-02-13 00:11:02,15.0883845,0.0001673,53.2154,44.8233,96.9695,263.1487,-4.0545e-05,-9.33e-06,0.0,0 STARLINK-4555,1 53572U 22101AX  23044.00766729 -.00000933  00000-0 -40545-4 0  9997,2 53572  53.2154  44.8233 0001673  96.9695 263.1487 15.08838450 27269,6917.885,95.438,540.907,538.593,0.0
53572.0,STARLINK-4555,PAYLOAD,2023-02-13 22:26:26,15.08835751,0.000119,53.218,40.6578,95.3625,264.7503,4.9139e-05,4.94e-06,0.0,0 STARLINK-4555,1 53572U 22101AX  23044.93502599  .00000494  00000-0  49139-4 0  9990,2 53572  53.2180  40.6578 0001190  95.3625 264.7503 15.08835751 27407,6917.893,95.438,540.582,538.935,0.0
53572.0,STARLINK-4555,PAYLOAD,2023-02-14 09:34:07,15.08845632,0.0001624,53.2168,38.5743,126.9813,233.1328,3.0315e-05,1.95e-06,0.0,0 STARLINK-4555,1 53572U 22101AX  23045.39869904  .00000195  00000-0  30315-4 0  9991,2 53572  53.2168  38.5743 0001624 126.9813 233.1328 15.08845632 27476,6917.863,95.437,540.852,538.605,0.0
53572.0,STARLINK-4555,PAYLOAD,2023-02-14 15:55:40,15.08844259,0.0001313,53.217,37.3852,72.7963,287.3173,4.227e-05,3.85e-06,0.0,0 STARLINK-4555,1 53572U 22101AX  23045.66366202  .00000385  00000-0  42270-4 0  9998,2 53572  53.2170  37.3852 0001313  72.7963 287.3173 15.08844259 27514,6917.867,95.437,540.641,538.824,0.0
53572.0,STARLINK-4555,PAYLOAD,2023-02-15 03:03:23,15.08826592,0.0001129,53.2188,35.3103,91.676,268.4362,6.9469e-05,8.18e-06,0.0,0 STARLINK-4555,1 53572U 22101AX  23046.12735377  .00000818  00000-0  69469-4 0  9993,2 53572  53.2188  35.3103 0001129  91.6760 268.4362 15.08826592 27587,6917.921,95.438,540.567,539.005,0.0
53572.0,STARLINK-4555,PAYLOAD,2023-02-15 06:14:09,15.08834365,0.0001173,53.2178,34.7137,81.1237,278.9888,7.6267e-05,9.26e-06,0.0,0 STARLINK-4555,1 53572U 22101AX  23046.25982969  .00000926  00000-0  76267-4 0  9992,2 53572  53.2178  34.7137 0001173  81.1237 278.9888 15.08834365 27607,6917.898,95.438,540.574,538.951,0.0
53572.0,STARLINK-4555,PAYLOAD,2023-02-15 22:08:00,15.08841805,0.0001161,53.2161,31.7374,61.5212,298.5897,1.0966e-06,-2.7e-06,0.0,0 STARLINK-4555,1 53572U 22101AX  23046.92222946 -.00000270  00000-0  10966-5 0  9996,2 53572  53.2161  31.7374 0001161  61.5212 298.5897 15.08841805 27707,6917.875,95.437,540.543,538.937,0.0
53572.0,STARLINK-4555,PAYLOAD,2023-02-16 02:54:08,15.08856899,0.000108,53.2161,30.8445,93.5031,266.6084,0.00012673,1.731e-05,0.0,0 STARLINK-4555,1 53572U 22101AX  23047.12093370  .00001731  00000-0  12673-3 0  9993,2 53572  53.2161  30.8445 0001080  93.5031 266.6084 15.08856899 27736,6917.829,95.436,540.441,538.947,0.0
53572.0,STARLINK-4555,PAYLOAD,2023-02-16 09:15:39,15.08868768,0.0001046,53.2163,29.6547,115.5846,244.5255,0.00022757,3.339e-05,0.0,0 STARLINK-4555,1 53572U 22101AX  23047.38587851  .00003339  00000-0  22757-3 0  9993,2 53572  53.2163  29.6547 0001046 115.5846 244.5255 15.08868768 27775,6917.792,95.436,540.381,538.934,0.0
53572.0,STARLINK-4555,PAYLOAD,2023-02-16 15:37:15,15.08829821,0.0001951,53.2186,28.4683,82.75,277.3714,1.7134e-05,-1.6e-07,0.0,0 STARLINK-4555,1 53572U 22101AX  23047.65087228 -.00000016  00000-0  17134-4 0  9990,2 53572  53.2186  28.4683 0001951  82.7500 277.3714 15.08829821 27811,6917.912,95.438,541.126,538.427,0.0
53572.0,STARLINK-4555,PAYLOAD,2023-02-17 02:44:58,15.08815498,9e-05,53.2171,26.3897,116.8104,243.298,-7.0559e-05,-1.41e-05,0.0,0 STARLINK-4555,1 53572U 22101AX  23048.11456564 -.00001410  00000-0 -70559-4 0  9995,2 53572  53.2171  26.3897 0000900 116.8104 243.2980 15.08815498 27880,6917.955,95.439,540.443,539.198,0.0
53572.0,STARLINK-4555,PAYLOAD,2023-02-17 07:31:08,15.08821463,0.0001627,53.2161,25.4936,68.5322,291.5843,-9.9339e-05,-1.868e-05,0.0,0 STARLINK-4555,1 53572U 22101AX  23048.31328740 -.00001868  00000-0 -99339-4 0  9995,2 53572  53.2161  25.4936 0001627  68.5322 291.5843 15.08821463 27912,6917.937,95.439,540.928,538.677,0.0
53572.0,STARLINK-4555,PAYLOAD,2023-02-17 15:28:03,15.0882488,0.0001133,53.2171,24.0064,74.7889,285.3228,-9.4169e-05,-1.786e-05,0.0,0 STARLINK-4555,1 53572U 22101AX  23048.64448601 -.00001786  00000-0 -94169-4 0  9995,2 53572  53.2171  24.0064 0001133  74.7889 285.3228 15.08824880 27968,6917.927,95.439,540.575,539.008,0.0
53572.0,STARLINK-4555,PAYLOAD,2023-02-18 07:21:54,15.08836825,0.0001139,53.2172,21.0321,84.3727,275.7395,-5.2149e-05,-1.118e-05,0.0,0 STARLINK-4555,1 53572U 22101AX  23049.30688127 -.00001118  00000-0 -52149-4 0  9999,2 53572  53.2172  21.0321 0001139  84.3727 275.7395 15.08836825 28068,6917.89,95.438,540.543,538.967,0.0
53572.0,STARLINK-4555,PAYLOAD,2023-02-18 15:18:49,15.08856022,0.0001189,53.2181,19.5469,84.8611,275.2517,-9.3434e-05,-1.775e-05,0.0,0 STARLINK-4555,1 53572U 22101AX  23049.63806897 -.00001775  00000-0 -93434-4 0  9992,2 53572  53.2181  19.5469 0001189  84.8611 275.2517 15.08856022 28113,6917.831,95.437,540.519,538.874,0.0
53572.0,STARLINK-4555,PAYLOAD,2023-02-19 07:12:39,15.08848684,0.0001152,53.217,16.574,73.0729,287.0389,0.0002998,4.488e-05,0.0,0 STARLINK-4555,1 53572U 22101AX  23050.30046258  .00004488  00000-0  29980-3 0  9991,2 53572  53.2170  16.5740 0001152  73.0729 287.0389 15.08848684 28214,6917.854,95.437,540.516,538.922,0.0
53572.0,STARLINK-4555,PAYLOAD,2023-02-19 15:09:36,15.08834849,0.0001701,53.2189,15.0852,77.5548,282.5635,0.00012817,1.752e-05,0.0,0 STARLINK-4555,1 53572U 22101AX  23050.63167755  .00001752  00000-0  12817-3 0  9995,2 53572  53.2189  15.0852 0001701  77.5548 282.5635 15.08834849 28267,6917.896,95.438,540.938,538.584,0.0
53572.0,STARLINK-4555,PAYLOAD,2023-02-20 07:03:27,15.08844791,0.0001412,53.2202,12.1104,89.2369,270.8785,4.8576e-05,4.85e-06,0.0,0 STARLINK-4555,1 53572U 22101AX  23051.29407338  .00000485  00000-0  48576-4 0  9996,2 53572  53.2202  12.1104 0001412  89.2369 270.8785 15.08844791 28365,6917.866,95.437,540.708,538.754,0.0
53572.0,STARLINK-4555,PAYLOAD,2023-02-21 06:54:14,15.08850052,0.000148,53.2178,7.6513,88.2097,271.9064,0.00010011,1.306e-05,0.0,0 STARLINK-4555,1 53572U 22101AX  23052.28766345  .00001306  00000-0  10011-3 0  9997,2 53572  53.2178   7.6513 0001480  88.2097 271.9064 15.08850052 28518,6917.85,95.437,540.739,538.691,0.0
53572.0,STARLINK-4555,PAYLOAD,2023-02-22 05:09:37,15.08851995,0.0001317,53.2184,3.4914,90.6308,269.4835,4.5847e-05,4.42e-06,0.0,0 STARLINK-4555,1 53572U 22101AX  23053.21502295  .00000442  00000-0  45847-4 0  9999,2 53572  53.2184   3.4914 0001317  90.6308 269.4835 15.08851995 28655,6917.844,95.437,540.62,538.798,0.0
53572.0,STARLINK-4555,PAYLOAD,2023-02-22 21:03:31,15.08827667,0.0001356,53.2183,0.5111,112.3516,247.762,-8.9476e-05,-1.711e-05,0.0,0 STARLINK-4555,1 53572U 22101AX  23053.87744342 -.00001711  00000-0 -89476-4 0  9990,2 53572  53.2183   0.5111 0001356 112.3516 247.7620 15.08827667 28758,6917.918,95.438,540.721,538.845,0.0
53572.0,STARLINK-4555,PAYLOAD,2023-02-23 03:25:03,15.08834106,9.47e-05,53.2175,359.3273,83.9944,276.1156,-0.00013517,-2.438e-05,0.0,0 STARLINK-4555,1 53572U 22101AX  23054.14240313 -.00002438  00000-0 -13517-3 0  9999,2 53572  53.2175 359.3273 0000947  83.9944 276.1156 15.08834106 28796,6917.898,95.438,540.419,539.108,0.0
53572.0,STARLINK-4555,PAYLOAD,2023-02-23 19:18:54,15.08836345,9.91e-05,53.2182,356.3518,91.8698,268.2408,5.9378e-05,6.57e-06,0.0,0 STARLINK-4555,1 53572U 22101AX  23054.80479759  .00000657  00000-0  59378-4 0  9995,2 53572  53.2182 356.3518 0000991  91.8698 268.2408 15.08836345 28896,6917.892,95.438,540.442,539.071,0.0
53572.0,STARLINK-4555,PAYLOAD,2023-02-23 22:29:40,15.08850457,9.97e-05,53.2171,355.7582,98.3127,261.7979,4.7547e-06,-2.12e-06,0.0,0 STARLINK-4555,1 53572U 22101AX  23054.93727203 -.00000212  00000-0  47547-5 0  9993,2 53572  53.2171 355.7582 0000997  98.3127 261.7979 15.08850457 28917,6917.848,95.437,540.403,539.024,0.0
53572.0,STARLINK-4555,PAYLOAD,2023-02-24 04:51:11,15.08864894,0.0001057,53.2173,354.568,91.1664,268.9449,0.00012309,1.673e-05,0.0,0 STARLINK-4555,1 53572U 22101AX  23055.20221644  .00001673  00000-0  12309-3 0  9999,2 53572  53.2173 354.5680 0001057  91.1664 268.9449 15.08864894 28955,6917.804,95.436,540.401,538.938,0.0
